NORAD_CAT_ID,OBJECT_NAME,OBJECT_TYPE,EPOCH,MEAN_MOTION,ECCENTRICITY,INCLINATION,RA_OF_ASC_NODE,ARG_OF_PERICENTER,MEAN_ANOMALY,BSTAR,MEAN_MOTION_DOT,MEAN_MOTION_DDOT,TLE_LINE0,TLE_LINE1,TLE_LINE2,SEMIMAJOR_AXIS,PERIOD,APOGEE,PERIGEE,DECAYED
52553.0,STARLINK-3858,PAYLOAD,2024-01-20 07:43:41,15.08839605,0.0001726,53.2189,27.4994,117.9942,242.1225,-3.5098e-05,-8.47e-06,0.0,0 STARLINK-3858,1 52553U 22051W   24020.32200968 -.00000847  00000-0 -35098-4 0  9998,2 52553  53.2189  27.4994 0001726 117.9942 242.1225 15.08839605 93863,6917.882,95.438,540.941,538.553,0.0
52553.0,STARLINK-3858,PAYLOAD,2024-01-21 05:59:05,15.08841609,0.0001465,53.2185,23.3352,87.8307,272.2853,0.00011404,1.528e-05,0.0,0 STARLINK-3858,1 52553U 22051W   24021.24936772  .00001528  00000-0  11404-3 0  9998,2 52553  53.2185  23.3352 0001465  87.8307 272.2853 15.08841609 93938,6917.875,95.437,540.754,538.727,0.0
52553.0,STARLINK-3858,PAYLOAD,2024-01-21 09:09:51,15.08846033,0.0001442,53.2178,22.7349,79.8461,280.2694,0.00015583,2.193e-05,0.0,0 STARLINK-3858,1 52553U 22051W   24021.38184392  .00002193  00000-0  15583-3 0  9997,2 52553  53.2178  22.7349 0001442  79.8461 280.2694 15.08846033 94025,6917.862,95.437,540.725,538.729,0.0
52553.0,STARLINK-3858,PAYLOAD,2024-01-22 04:14:29,15.08826733,0.0001594,53.2194,19.1679,74.6694,285.4475,0.00032403,4.871e-05,0.0,0 STARLINK-3858,1 52553U 22051W   24022.17673228  .00004871  00000-0  32403-3 0  9991,2 52553  53.2194  19.1679 0001594  74.6694 285.4475 15.08826733 94140,6917.921,95.438,540.889,538.683,0.0
52553.0,STARLINK-3858,PAYLOAD,2024-01-22 05:49:52,15.0882681,0.0001695,53.2194,18.8704,70.3515,289.766,0.00038581,5.855e-05,0.0,0 STARLINK-3858,1 52553U 22051W   24022.24297291  .00005855  00000-0  38581-3 0  9997,2 52553  53.2194  18.8704 0001695  70.3515 289.7660 15.08826810 94084,6917.921,95.438,540.958,538.613,0.0
52553.0,STARLINK-3858,PAYLOAD,2024-01-22 09:00:38,15.08850853,0.0001612,53.2191,18.273,105.5558,254.5612,0.00022199,3.248e-05,0.0,0 STARLINK-3858,1 52553U 22051W   24022.37544064  .00003248  00000-0  22199-3 0  9996,2 52553  53.2191  18.2730 0001612 105.5558 254.5612 15.08850853 94172,6917.847,95.437,540.827,538.597,0.0
52553.0,STARLINK-3858,PAYLOAD,2024-01-23 04:05:16,15.08844385,0.0001534,53.2191,14.7024,103.1492,256.9672,-4.2972e-05,-9.72e-06,0.0,0 STARLINK-3858,1 52553U 22051W   24023.17032667 -.00000972  00000-0 -42972-4 0  9991,2 52553  53.2191  14.7024 0001534 103.1492 256.9672 15.08844385 94291,6917.867,95.437,540.793,538.671,0.0
52553.0,STARLINK-3858,PAYLOAD,2024-01-23 05:40:39,15.08849199,0.0001732,53.2201,14.4045,100.1705,259.9483,4.3502e-06,-2.19e-06,0.0,0 STARLINK-3858,1 52553U 22051W   24023.23656268 -.00000219  00000-0  43502-5 0  9991,2 52553  53.2201  14.4045 0001732 100.1705 259.9483 15.08849199 94232,6917.852,95.437,540.915,538.519,0.0
52553.0,STARLINK-3858,PAYLOAD,2024-01-24 03:56:02,15.08846982,0.0001845,53.2196,10.2399,124.2709,235.8458,-4.8185e-05,-1.055e-05,0.0,0 STARLINK-3858,1 52553U 22051W   24024.16392177 -.00001055  00000-0 -48185-4 0  9991,2 52553  53.2196  10.2399 0001845 124.2709 235.8458 15.08846982 94442,6917.859,95.437,541.0,538.448,0.0
52553.0,STARLINK-3858,PAYLOAD,2024-01-24 05:31:26,15.08847251,0.0001727,53.2195,9.9462,109.1117,251.0062,-1.4215e-05,-5.14e-06,0.0,0 STARLINK-3858,1 52553U 22051W   24024.23016226 -.00000514  00000-0 -14215-4 0  9993,2 52553  53.2195   9.9462 0001727 109.1117 251.0062 15.08847251 94385,6917.858,95.437,540.918,538.529,0.0
52553.0,STARLINK-3858,PAYLOAD,2024-01-25 03:46:50,15.08836737,0.000193,53.2197,5.785,115.1531,244.9661,1.69e-05,-1.9e-07,0.0,0 STARLINK-3858,1 52553U 22051W   24025.15752806 -.00000019  00000-0  16900-4 0  9998,2 52553  53.2197   5.7850 0001930 115.1531 244.9661 15.08836737 94591,6917.89,95.438,541.091,538.42,0.0
52553.0,STARLINK-3858,PAYLOAD,2024-01-25 05:22:13,15.08837026,0.0001837,53.2195,5.4908,110.3399,249.7791,1.7647e-05,-7e-08,0.0,0 STARLINK-3858,1 52553U 22051W   24025.22376896 -.00000007  00000-0  17647-4 0  9993,2 52553  53.2195   5.4908 0001837 110.3399 249.7791 15.08837026 94538,6917.889,95.438,541.025,538.484,0.0
52553.0,STARLINK-3858,PAYLOAD,2024-01-26 05:13:00,15.08835197,0.0001801,53.2199,1.0303,108.8809,251.2379,4.7731e-05,4.72e-06,0.0,0 STARLINK-3858,1 52553U 22051W   24026.21737247  .00000472  00000-0  47731-4 0  9996,2 52553  53.2199   1.0303 0001801 108.8809 251.2379 15.08835197 94753,6917.895,95.438,541.006,538.514,0.0
52553.0,STARLINK-3858,PAYLOAD,2024-01-27 06:39:11,15.08837212,0.0001573,53.2203,356.2692,98.9546,261.1624,0.00011565,1.553e-05,0.0,0 STARLINK-3858,1 52553U 22051W   24027.27721346  .00001553  00000-0  11565-3 0  9992,2 52553  53.2203 356.2692 0001573  98.9546 261.1624 15.08837212 94841,6917.889,95.438,540.842,538.666,0.0
52553.0,STARLINK-3858,PAYLOAD,2024-01-28 06:29:58,15.08841933,0.0001536,53.2201,351.8049,73.4886,286.6274,7.2052e-05,8.59e-06,0.0,0 STARLINK-3858,1 52553U 22051W   24028.27081504  .00000859  00000-0  72052-4 0  9995,2 52553  53.2201 351.8049 0001536  73.4886 286.6274 15.08841933 94994,6917.874,95.437,540.802,538.677,0.0
52553.0,STARLINK-3858,PAYLOAD,2024-01-29 03:09:57,15.08857043,0.0001944,53.2196,347.9463,74.9614,285.1594,0.00015067,2.112e-05,0.0,0 STARLINK-3858,1 52553U 22051W   24029.13192033  .00002112  00000-0  15067-3 0  9997,2 52553  53.2196 347.9463 0001944  74.9614 285.1594 15.08857043 95192,6917.828,95.436,541.038,538.348,0.0
52553.0,STARLINK-3858,PAYLOAD,2024-01-29 06:20:42,15.08874605,0.0001579,53.2197,347.3462,86.9071,273.2102,0.00030243,4.533e-05,0.0,0 STARLINK-3858,1 52553U 22051W   24029.26438205  .00004533  00000-0  30243-3 0  9997,2 52553  53.2197 347.3462 0001579  86.9071 273.2102 15.08874605 95219,6917.775,95.435,540.732,538.547,0.0
52553.0,STARLINK-3858,PAYLOAD,2024-01-29 20:39:13,15.0884195,0.0001777,53.2184,344.6714,92.2428,267.8767,-4.5456e-05,-1.012e-05,0.0,0 STARLINK-3858,1 52553U 22051W   24029.86057109 -.00001012  00000-0 -45456-4 0  9997,2 52553  53.2184 344.6714 0001777  92.2428 267.8767 15.08841950 95236,6917.874,95.437,540.969,538.51,0.0
52553.0,STARLINK-3858,PAYLOAD,2024-01-30 04:36:09,15.08840325,0.0001509,53.2192,343.1847,89.4376,270.6789,-4.612e-05,-1.022e-05,0.0,0 STARLINK-3858,1 52553U 22051W   24030.19177178 -.00001022  00000-0 -46120-4 0  9994,2 52553  53.2192 343.1847 0001509  89.4376 270.6789 15.08840325 95353,6917.879,95.438,540.788,538.7,0.0
52553.0,STARLINK-3858,PAYLOAD,2024-01-30 06:11:32,15.08842219,0.0001445,53.2191,342.8862,100.6384,259.4771,-3.5017e-05,-8.45e-06,0.0,0 STARLINK-3858,1 52553U 22051W   24030.25800936 -.00000845  00000-0 -35017-4 0  9991,2 52553  53.2191 342.8862 0001445 100.6384 259.4771 15.08842219 95292,6917.874,95.437,540.738,538.739,0.0
52553.0,STARLINK-3858,PAYLOAD,2024-01-31 02:51:32,15.08851686,0.0001744,53.2187,339.0215,80.0808,280.0381,-0.00021106,-3.647e-05,0.0,0 STARLINK-3858,1 52553U 22051W   24031.11913078 -.00003647  00000-0 -21106-3 0  9995,2 52553  53.2187 339.0215 0001744  80.0808 280.0381 15.08851686 95421,6917.845,95.437,540.916,538.503,0.0
52553.0,STARLINK-3858,PAYLOAD,2024-02-01 01:06:58,15.08761668,0.0002249,53.2197,334.8567,73.0367,287.0872,0.00099526,0.00015553,0.0,0 STARLINK-3858,1 52553U 22051W   24032.04651360  .00015553  00000-0  99526-3 0  9999,2 52553  53.2197 334.8567 0002249  73.0367 287.0872 15.08761668 95633,6918.12,95.443,541.541,538.429,0.0
52553.0,STARLINK-3858,PAYLOAD,2024-02-01 20:11:35,15.08835911,0.0001795,53.2199,331.2969,80.8908,279.2287,7.209e-05,8.59e-06,0.0,0 STARLINK-3858,1 52553U 22051W   24032.84137911  .00000859  00000-0  72090-4 0  9999,2 52553  53.2199 331.2969 0001795  80.8908 279.2287 15.08835911 95753,6917.893,95.438,541.0,538.516,0.0
52553.0,STARLINK-3858,PAYLOAD,2024-02-02 02:33:07,15.08837848,0.0001737,53.2203,330.1063,96.3359,263.7831,7.9413e-05,9.76e-06,0.0,0 STARLINK-3858,1 52553U 22051W   24033.10633737  .00000976  00000-0  79413-4 0  9992,2 52553  53.2203 330.1063 0001737  96.3359 263.7831 15.08837848 95721,6917.887,95.438,540.954,538.55,0.0
52553.0,STARLINK-3858,PAYLOAD,2024-02-02 20:02:22,15.08834692,0.0001814,53.2203,326.8357,99.0602,261.0595,4.0381e-05,3.55e-06,0.0,0 STARLINK-3858,1 52553U 22051W   24033.83498319  .00000355  00000-0  40381-4 0  9990,2 52553  53.2203 326.8357 0001814  99.0602 261.0595 15.08834692 95830,6917.897,95.438,541.017,538.507,0.0
52553.0,STARLINK-3858,PAYLOAD,2024-02-03 02:23:54,15.08837684,0.0001813,53.2202,325.6459,103.5455,256.5739,6.3754e-05,7.27e-06,0.0,0 STARLINK-3858,1 52553U 22051W   24034.09994069  .00000727  00000-0  63754-4 0  9994,2 52553  53.2202 325.6459 0001813 103.5455 256.5739 15.08837684 95940,6917.887,95.438,541.007,538.498,0.0
52553.0,STARLINK-3858,PAYLOAD,2024-02-04 03:50:05,15.08840843,0.0001619,53.2194,320.8863,104.3494,255.7678,4.6849e-05,4.58e-06,0.0,0 STARLINK-3858,1 52553U 22051W   24035.15978123  .00000458  00000-0  46849-4 0  9992,2 52553  53.2194 320.8863 0001619 104.3494 255.7678 15.08840843 96105,6917.878,95.438,540.863,538.623,0.0
52553.0,STARLINK-3858,PAYLOAD,2024-02-04 05:25:27,15.08843992,0.0001557,53.2186,320.5873,104.8423,255.2742,7.4571e-05,8.99e-06,0.0,0 STARLINK-3858,1 52553U 22051W   24035.22601834  .00000899  00000-0  74571-4 0  9994,2 52553  53.2186 320.5873 0001557 104.8423 255.2742 15.08843992 96040,6917.868,95.437,540.81,538.656,0.0
52553.0,STARLINK-3858,PAYLOAD,2024-02-04 22:54:42,15.0883982,0.0001352,53.2183,317.3152,92.6085,267.5062,2.8475e-05,1.65e-06,0.0,0 STARLINK-3858,1 52553U 22051W   24035.95466307  .00000165  00000-0  28475-4 0  9996,2 52553  53.2183 317.3152 0001352  92.6085 267.5062 15.08839820 96150,6917.881,95.438,540.681,538.811,0.0
52553.0,STARLINK-3858,PAYLOAD,2024-02-05 11:37:47,15.08839014,0.0001548,53.2192,314.9365,103.5385,256.5779,5.6262e-05,6.08e-06,0.0,0 STARLINK-3858,1 52553U 22051W   24036.48458209  .00000608  00000-0  56262-4 0  9994,2 52553  53.2192 314.9365 0001548 103.5385 256.5779 15.08839014 96306,6917.883,95.438,540.819,538.678,0.0
